NOAA 17                 
1 27453U 02032A   26074.28830035  .00000213  00000+0  10809-3 0  9992
2 27453  98.8550  38.9774 0010541 263.8271  96.1708 14.26192863233603
NOAA 18                 
1 28654U 05018A   26074.27460455  .00000045  00000+0  46893-4 0  9993
2 28654  98.8148 155.3035 0015139  60.6278 299.6404 14.13711929 73041
NOAA 19                 
1 33591U 09005A   26074.25677984  .00000042  00000+0  46194-4 0  9995
2 33591  98.9596 145.0370 0012748 297.8018  62.1861 14.13457802881215
SUOMI NPP               
1 37849U 11061A   26074.24104616  .00000102  00000+0  69182-4 0  9995
2 37849  98.7876  15.7999 0000712 194.1780 165.9376 14.19545341745110
NOAA 20 (JPSS-1)        
1 43013U 17073A   26074.25575108  .00000070  00000+0  54341-4 0  9998
2 43013  98.7698  14.5877 0001454 130.1629 229.9675 14.19537656431148
NOAA 21 (JPSS-2)        
1 54234U 22150A   26074.21991199  .00000096  00000+0  66510-4 0  9994
2 54234  98.7559  14.4226 0002763  96.8823 263.2667 14.19553856173219
