[{"OBJECT_NAME":"NOAA 17","OBJECT_ID":"2002-032A","EPOCH":"2026-03-15T06:55:09.150240","MEAN_MOTION":14.26192863,"ECCENTRICITY":0.00105416,"INCLINATION":98.855,"RA_OF_ASC_NODE":38.9774,"ARG_OF_PERICENTER":263.8271,"MEAN_ANOMALY":96.1708,"EPHEMERIS_TYPE":0,"CLASSIFICATION_TYPE":"U","NORAD_CAT_ID":27453,"ELEMENT_SET_NO":999,"REV_AT_EPOCH":23360,"BSTAR":0.000108093,"MEAN_MOTION_DOT":2.13e-6,"MEAN_MOTION_DDOT":0},{"OBJECT_NAME":"NOAA 18","OBJECT_ID":"2005-018A","EPOCH":"2026-03-15T06:35:25.833120","MEAN_MOTION":14.13711929,"ECCENTRICITY":0.00151394,"INCLINATION":98.8148,"RA_OF_ASC_NODE":155.3035,"ARG_OF_PERICENTER":60.6278,"MEAN_ANOMALY":299.6404,"EPHEMERIS_TYPE":0,"CLASSIFICATION_TYPE":"U","NORAD_CAT_ID":28654,"ELEMENT_SET_NO":999,"REV_AT_EPOCH":7304,"BSTAR":4.6893142e-5,"MEAN_MOTION_DOT":4.5e-7,"MEAN_MOTION_DDOT":0},{"OBJECT_NAME":"NOAA 19","OBJECT_ID":"2009-005A","EPOCH":"2026-03-15T06:09:45.778176","MEAN_MOTION":14.13457802,"ECCENTRICITY":0.00127488,"INCLINATION":98.9596,"RA_OF_ASC_NODE":145.037,"ARG_OF_PERICENTER":297.8018,"MEAN_ANOMALY":62.1861,"EPHEMERIS_TYPE":0,"CLASSIFICATION_TYPE":"U","NORAD_CAT_ID":33591,"ELEMENT_SET_NO":999,"REV_AT_EPOCH":88121,"BSTAR":4.6193861e-5,"MEAN_MOTION_DOT":4.2e-7,"MEAN_MOTION_DDOT":0},{"OBJECT_NAME":"SUOMI NPP","OBJECT_ID":"2011-061A","EPOCH":"2026-03-15T05:47:06.388224","MEAN_MOTION":14.19545341,"ECCENTRICITY":7.128e-5,"INCLINATION":98.7876,"RA_OF_ASC_NODE":15.7999,"ARG_OF_PERICENTER":194.178,"MEAN_ANOMALY":165.9376,"EPHEMERIS_TYPE":0,"CLASSIFICATION_TYPE":"U","NORAD_CAT_ID":37849,"ELEMENT_SET_NO":999,"REV_AT_EPOCH":74511,"BSTAR":6.9182499e-5,"MEAN_MOTION_DOT":1.02e-6,"MEAN_MOTION_DDOT":0},{"OBJECT_NAME":"NOAA 20 (JPSS-1)","OBJECT_ID":"2017-073A","EPOCH":"2026-03-15T06:08:16.893312","MEAN_MOTION":14.19537656,"ECCENTRICITY":0.00014544,"INCLINATION":98.7698,"RA_OF_ASC_NODE":14.5877,"ARG_OF_PERICENTER":130.1629,"MEAN_ANOMALY":229.9675,"EPHEMERIS_TYPE":0,"CLASSIFICATION_TYPE":"U","NORAD_CAT_ID":43013,"ELEMENT_SET_NO":999,"REV_AT_EPOCH":43114,"BSTAR":5.4340581e-5,"MEAN_MOTION_DOT":7.0e-7,"MEAN_MOTION_DDOT":0},{"OBJECT_NAME":"NOAA 21 (JPSS-2)","OBJECT_ID":"2022-150A","EPOCH":"2026-03-15T05:16:40.395936","MEAN_MOTION":14.19553856,"ECCENTRICITY":0.00027632,"INCLINATION":98.7559,"RA_OF_ASC_NODE":14.4226,"ARG_OF_PERICENTER":96.8823,"MEAN_ANOMALY":263.2667,"EPHEMERIS_TYPE":0,"CLASSIFICATION_TYPE":"U","NORAD_CAT_ID":54234,"ELEMENT_SET_NO":999,"REV_AT_EPOCH":17321,"BSTAR":6.6510492e-5,"MEAN_MOTION_DOT":9.6e-7,"MEAN_MOTION_DDOT":0}]
